STARLINK-5198           
1 54099U 22136BA  23103.28051490  .00032280  00000+0  20344-2 0  9998
2 54099  53.2182  58.5249 0001567 102.0844 258.0324 15.08887631 26752
STARLINK-5185           
1 54100U 22136BB  23103.29523868 -.00000518  00000+0 -14436-4 0  9993
2 54100  53.2175  58.6162 0001063  90.8459 269.2655 15.08846356 26759
STARLINK-5204           
1 54101U 22136BC  23103.09703068  .00002769  00000+0  19196-3 0  9999
2 54101  53.2186  44.5546 0000874  79.4086 280.7005 15.08844362 26932
STARLINK-5179           
1 54102U 22136BD  23103.28418504 -.00000257  00000+0  19450-5 0  9995
2 54102  53.2201  58.5443 0001251  96.4323 263.6812 15.08848402 27223
STARLINK-5200           
1 54103U 22136BE  23103.26128939  .00002372  00000+0  16704-3 0  9990
2 54103  53.2185  39.1595 0001304  87.5713 272.5428 15.08842788 27022
STARLINK-5203           
1 54104U 22136BF  23103.17247802 -.00000922  00000+0 -39845-4 0  9995
2 54104  53.2212  24.3221 0001023  85.8179 274.2930 15.08849058 27227
COSMOS 2561             
1 54109U 22137A   23103.68135031  .00024074  00000+0  37229-3 0  9992
2 54109  97.0544 186.3757 0011776 192.4179 167.6787 15.53995346 26990
COSMOS 2562             
1 54110U 22137B   23103.68415977  .00054136  00000+0  53365-3 0  9995
2 54110  97.1729 190.3516 0011283  64.9026 295.3404 15.65713071 27108
ONEWEB-0490             
1 54113U 22138A   23103.22838676  .00000131  00000+0  29393-3 0  9994
2 54113  87.9381 175.9017 0002180 106.4757 253.6616 13.19725131 23707
ONEWEB-0492             
1 54114U 22138B   23103.25156491  .00000062  00000+0  12267-3 0  9991
2 54114  87.9357 175.9014 0002410 111.7932 248.3457 13.19725084 23710
ONEWEB-0495             
1 54115U 22138C   23103.23258559 -.00000181  00000+0 -48460-3 0  9996
2 54115  87.9326 175.8618 0002147 115.6678 244.4677 13.19724781 23694
ONEWEB-0497             
1 54116U 22138D   23103.24313110  .00000124  00000+0  27811-3 0  9995
2 54116  87.9248 175.8737 0002203 106.3701 253.7674 13.19724571 23683
ONEWEB-0499             
1 54117U 22138E   23103.22627803  .00000182  00000+0  42241-3 0  9999
2 54117  87.9315 175.9216 0001378 111.6815 248.4465 13.19726474 23693
ONEWEB-0500             
1 54118U 22138F   23103.23048044  .00000119  00000+0  26418-3 0  9993
2 54118  87.9252 175.8887 0002130 100.8294 259.3078 13.19723065 23701
ONEWEB-0501             
1 54119U 22138G   23103.25996779 -.00000038  00000+0 -12707-3 0  9991
2 54119  87.9287 175.8708 0002237 121.2025 238.9327 13.19723570 23687
ONEWEB-0502             
1 54120U 22138H   23103.24522824  .00000038  00000+0  62238-4 0  9991
2 54120  87.9255 175.8907 0002050 115.9735 244.1609 13.19723281 23700
ONEWEB-0503             
1 54121U 22138J   23103.23469951  .00000062  00000+0  12176-3 0  9994
2 54121  87.9290 175.8818 0001971 112.1624 247.9718 13.19723490 23690
ONEWEB-0504             
1 54122U 22138K   23103.22206753  .00000135  00000+0  30571-3 0  9993
2 54122  87.9379 175.9189 0001749 113.4299 246.7018 13.19726242 24572
ONEWEB-0505             
1 54123U 22138L   23103.21785448  .00000098  00000+0  21354-3 0  9993
2 54123  87.9258 175.8914 0001643 110.3841 249.7468 13.19724739 23688
ONEWEB-0506             
1 54124U 22138M   23103.26839124  .00000032  00000+0  46365-4 0  9998
2 54124  87.9242 175.8650 0002054 114.6883 245.4463 13.19727488 23681
ONEWEB-0507             
1 54125U 22138N   23103.28946368  .00000103  00000+0  22440-3 0  9996
2 54125  87.9411 175.9285 0002156 109.3867 250.7499 13.19724920 23733
ONEWEB-0508             
1 54126U 22138P   23103.20941989  .00000051  00000+0  93850-4 0  9999
2 54126  87.9250 175.8848 0002282 121.7828 238.3528 13.19726762 23702
ONEWEB-0509             
1 54127U 22138Q   23103.26207903  .00000014  00000+0  28952-5 0  9998
2 54127  87.9237 175.8755 0001929 108.8745 251.2597 13.19724858 23687
ONEWEB-0510             
1 54128U 22138R   23103.21262375  .00000636  00000+0  10343-3 0  9991
2 54128  86.9009 152.8510 0013098  69.3268 290.9350 14.69385455 25376
ONEWEB-0511             
1 54129U 22138S   23103.25786261 -.00000008  00000+0 -52086-4 0  9997
2 54129  87.9245 175.8933 0001539 105.6748 254.4554 13.19723060 24583
ONEWEB-0512             
1 54130U 22138T   23103.24944393  .00000009  00000+0 -89354-5 0  9999
2 54130  87.9294 175.8842 0002079 121.6662 238.4674 13.19724848 24558
ONEWEB-0513             
1 54131U 22138U   23103.22099608  .00000102  00000+0  22234-3 0  9993
2 54131  87.9249 175.7992 0001749 128.9385 231.1903 13.19727248 23561
ONEWEB-0514             
1 54132U 22138V   23103.26630162  .00000019  00000+0  14294-4 0  9999
2 54132  87.9284 175.8666 0001994 101.0697 259.0660 13.19726084 24578
ONEWEB-0515             
1 54133U 22138W   23103.83591923  .00001532  00000+0  25523-3 0  9991
2 54133  86.9032 152.6162 0013587  60.6706 299.5866 14.69337684 26350
ONEWEB-0516             
1 54134U 22138X   23103.24101571  .00000059  00000+0  11561-3 0  9993
2 54134  87.9297 175.8802 0002053 103.9285 256.2076 13.19727158 23704
ONEWEB-0517             
1 54135U 22138Y   23103.21994939  .00000075  00000+0  15421-3 0  9996
2 54135  87.9363 175.9075 0001912 116.8007 243.3321 13.19724413 23701
ONEWEB-0518             
1 54136U 22138Z   23103.23891310  .00000083  00000+0  17608-3 0  9996
2 54136  87.9342 175.8802 0002337 109.4270 250.7116 13.19721406 23701
ONEWEB-0519             
1 54137U 22138AA  23103.26418567 -.00000039  00000+0 -13010-3 0  9995
2 54137  87.9280 175.8671 0001915 117.3559 242.7769 13.19724691 23711
ONEWEB-0520             
1 54138U 22138AB  23103.22417029  .00000108  00000+0  23845-3 0  9996
2 54138  87.9335 175.9113 0002185 120.5490 239.5858 13.19724386 23696
ONEWEB-0521             
1 54139U 22138AC  23103.25576577 -.00000066  00000+0 -19759-3 0  9998
2 54139  87.9237 175.8724 0001692  99.2877 260.8447 13.19725364 23641
ONEWEB-0522             
1 54140U 22138AD  23103.23680713  .00000092  00000+0  19732-3 0  9994
2 54140  87.9289 175.8818 0002104 109.6866 250.4493 13.19728272 23688
ONEWEB-0523             
1 54141U 22138AE  23103.21333685 -.00021989  00000+0 -37286-2 0  9999
2 54141  86.9012 152.8219 0011653  69.7844 290.4624 14.69479429 26263
ONEWEB-0524             
1 54142U 22138AF  23103.21722861  .00001648  00000+0  27445-3 0  9993
2 54142  86.9034 152.8491 0011737  68.9380 291.3090 14.69410481 25404
ONEWEB-0525             
1 54143U 22138AG  23103.25364184  .00000141  00000+0  31876-3 0  9998
2 54143  87.9266 175.8730 0002180 111.6549 248.4816 13.19731352 23706
ONEWEB-0526             
1 54144U 22138AH  23103.28735367  .00000073  00000+0  15091-3 0  9992
2 54144  87.9258 175.8795 0002142 106.1940 253.9428 13.19724334 23680
ONEWEB-0529             
1 54145U 22138AJ  23103.21574645  .00000165  00000+0  38077-3 0  9997
2 54145  87.9298 175.8886 0002366 114.0550 246.0830 13.19721822 23699
ONEWEB-0531             
1 54146U 22138AK  23103.14948849  .00001435  00000+0  23868-3 0  9994
2 54146  86.9022 152.8601 0012898  67.7054 292.5528 14.69379545 25394
ONEWEB-0535             
1 54147U 22138AL  23103.24734249 -.00000011  00000+0 -59327-4 0  9994
2 54147  87.9294 175.8760 0001848  93.7290 266.4054 13.19724460 23714
ONEWEB-0536             
1 54148U 22138AM  23103.15910016  .00001566  00000+0  26138-3 0  9990
2 54148  86.8995 152.8577 0012086  64.8869 295.3600 14.69296805 25396
GONETS-M 23             
1 54150U 22139A   23104.05519825  .00000010  00000+0  00000+0 0  9996
2 54150  82.5117 349.2052 0020080 233.1688 126.7566 12.42882298 21526
GONETS-M 24             
1 54151U 22139B   23103.38214290  .00000010  00000+0  00000+0 0  9990
2 54151  82.5036 349.4630 0015027 244.9063 115.0461 12.42880825 21443
GONETS-M 25             
1 54152U 22139C   23103.36730162  .00000010  00000+0  00000+0 0  9990
2 54152  82.5104 349.5378 0018868 243.7832 116.1312 12.42872353 21441
SKIF-D                  
1 54153U 22139D   23103.67815883  .00000053  00000+0  00000+0 0  9996
2 54153  90.0055  96.7784 0006917 179.4036 180.6451  5.00427607  6050
STARLINK-5290           
1 54157U 22141A   23104.23369022  .00001397  00000+0  10585-3 0  9990
2 54157  53.2159  94.7472 0001417  94.5086 265.6068 15.08837131 25622
STARLINK-5297           
1 54158U 22141B   23103.71113684  .00002545  00000+0  17791-3 0  9996
2 54158  53.2161  97.1718 0001235  92.6898 267.4236 15.08840752 25545
STARLINK-5294           
1 54159U 22141C   23103.67894718  .00000164  00000+0  28405-4 0  9996
2 54159  53.2162  96.9847 0001243 101.2836 258.8296 15.08838635 25542
STARLINK-5233           
1 54160U 22141D   23103.55517567 -.00001334  00000+0 -65719-4 0  9990
2 54160  53.2213  52.7019 0001208  98.6286 261.4843 15.08841857 26157
STARLINK-5269           
1 54161U 22141E   23103.37625165  .00000341  00000+0  39520-4 0  9991
2 54161  53.2166  98.6361 0001135  93.6577 266.4545 15.08840104 25495
STARLINK-5273           
1 54162U 22141F   23103.70008329  .00001129  00000+0  89013-4 0  9993
2 54162  53.2156  97.1014 0001347  87.5516 272.5630 15.08837661 25547
STARLINK-5161           
1 54163U 22141G   23104.17573914  .00003462  00000+0  23545-3 0  9992
2 54163  53.2175  85.1160 0001300  96.4063 263.7077 15.08845839 25759
STARLINK-5278           
1 54164U 22141H   23103.64950354  .00002086  00000+0  14909-3 0  9996
2 54164  53.2164  87.5220 0001285 100.6686 259.4451 15.08840829 25675
STARLINK-5279           
1 54165U 22141J   23103.69640253  .00003815  00000+0  25764-3 0  9998
2 54165  53.2160  97.0779 0001400  94.0320 266.0832 15.08842189 25541
STARLINK-5280           
1 54166U 22141K   23104.17205394  .00002671  00000+0  18581-3 0  9994
2 54166  53.2162  85.0957 0001211  93.4328 266.6803 15.08842408 25751
STARLINK-5243           
1 54167U 22141L   23103.41028230  .00001286  00000+0  98854-4 0  9996
2 54167  53.2151  98.1366 0001108  94.8795 265.2323 15.08842544 25503
